[{"OBJECT_NAME":"KUIPER-00135","OBJECT_ID":"2025-228Q","EPOCH":"2026-03-09T22:37:04.119456","MEAN_MOTION":14.79918381,"ECCENTRICITY":7.784e-5,"INCLINATION":51.9042,"RA_OF_ASC_NODE":349.5544,"ARG_OF_PERICENTER":95.0857,"MEAN_ANOMALY":265.0194,"EPHEMERIS_TYPE":0,"CLASSIFICATION_TYPE":"U","NORAD_CAT_ID":65961,"ELEMENT_SET_NO":999,"REV_AT_EPOCH":2340,"BSTAR":-0.0013645171,"MEAN_MOTION_DOT":-0.00010603,"MEAN_MOTION_DDOT":0},{"OBJECT_NAME":"SL-8 DEB","OBJECT_ID":"1977-119D","EPOCH":"2026-03-08T15:48:40.326048","MEAN_MOTION":14.82591205,"ECCENTRICITY":0.00067755,"INCLINATION":74.0147,"RA_OF_ASC_NODE":289.9541,"ARG_OF_PERICENTER":330.8013,"MEAN_ANOMALY":29.2785,"EPHEMERIS_TYPE":0,"CLASSIFICATION_TYPE":"U","NORAD_CAT_ID":10525,"ELEMENT_SET_NO":999,"REV_AT_EPOCH":54919,"BSTAR":0.00078698543,"MEAN_MOTION_DOT":6.307e-5,"MEAN_MOTION_DDOT":0}]
